{
  "version": 0.6,
  "generator": "Overpass API 0.7.56.1002 b121d216",
  "osm3s": {
    "timestamp_osm_base": "2020-03-18T14:29:02Z",
    "timestamp_areas_base": "2020-03-06T11:03:01Z",
    "copyright": "The data included in this document is from www.openstreetmap.org. The data is made available under ODbL."
  },
  "elements": [
    {
      "type": "node",
      "id": 249399277,
      "lat": 40.7696272,
      "lon": 44.6736646,
      "tags": {
        "ISO3166-1": "AM",
        "alt_name:eo": "Armenujo",
        "alt_name:lfn": "Armenia",
        "alt_name:vi": "Acmeni",
        "capital_city": "Yerevan",
        "country_code_fips": "AM",
        "country_code_iso3166_1_alpha_2": "AM",
        "geonames:id": "174982",
        "int_name": "Armenia",
        "is_in:continent": "Europe",
        "name": "Հայաստան",
        "name:ab": "Ермантәыла",
        "name:ace": "Armenia",
        "name:af": "Armenië",
        "name:ak": "Aamenia",
        "name:als": "Armenien",
        "name:am": "አርሜኒያ",
        "name:an": "Armenia",
        "name:ang": "Armenia",
        "name:ar": "أرمينيا",
        "name:arc": "ܐܪܡܢܝܐ",
        "name:arz": "أرمينيا",
        "name:ast": "Armenia",
        "name:av": "ЦIамухъ",
        "name:az": "Ermənistan",
        "name:ba": "Әрмәнстан",
        "name:bar": "Armenien",
        "name:bat-smg": "Armienėjė",
        "name:bcl": "Armenya",
        "name:be": "Арменія",
        "name:be-tarask": "Армэнія",
        "name:bg": "Армения",
        "name:bi": "Armenia",
        "name:bm": "Arimeni",
        "name:bn": "আর্মেনিয়া",
        "name:bo": "ཨར་མེ་ནི་ཡ།",
        "name:bpy": "আর্মেনিয়া",
        "name:br": "Armenia",
        "name:bs": "Armenija",
        "name:bxr": "Армени",
        "name:ca": "Armènia",
        "name:cdo": "Ā-mī-nà̤-ā",
        "name:ce": "Эрмалойчоь",
        "name:ceb": "Armenya",
        "name:chr": "ᎠᎵᎻᏂᎠ",
        "name:ckb": "ئەرمەنستان",
        "name:co": "Armenia",
        "name:crh": "Ermenistan",
        "name:cs": "Arménie",
        "name:csb": "Armenijô",
        "name:cu": "Армєнїꙗ",
        "name:cv": "Эрмени",
        "name:cy": "Armenia",
        "name:da": "Armenien",
        "name:de": "Armenien",
        "name:diq": "Ermenıstan",
        "name:dsb": "Armeńska",
        "name:dv": "އަރުމީނިއާ",
        "name:dz": "ཨར་མི་ནི་ཡ",
        "name:ee": "Armenia nutome",
        "name:el": "Αρμενία",
        "name:en": "Armenia",
        "name:eo": "Armenio",
        "name:es": "Armenia",
        "name:et": "Armeenia",
        "name:eu": "Armenia",
        "name:ext": "Arménia",
        "name:fa": "ارمنستان",
        "name:ff": "Armenii",
        "name:fi": "Armenia",
        "name:fiu-vro": "Armeeniä",
        "name:fo": "Armenia",
        "name:fr": "Arménie",
        "name:frp": "Armènie",
        "name:fur": "Armenie",
        "name:fy": "Armeenje",
        "name:ga": "An Airméin",
        "name:gag": "Armeniya",
        "name:gd": "Airmeinia",
        "name:gl": "Armenia",
        "name:glk": "Armөnөston",
        "name:gn": "Armenia",
        "name:gu": "આર્મેનિયા",
        "name:gv": "Yn Armeain",
        "name:ha": "Armeniya",
        "name:hak": "Â-mî-nì-â",
        "name:haw": "‘Āmēnia",
        "name:he": "ארמניה",
        "name:hi": "आर्मीनिया",
        "name:hif": "Armenia",
        "name:hr": "Armenija",
        "name:hsb": "Armenska",
        "name:ht": "Ameni",
        "name:hu": "Örményország",
        "name:hy": "Հայաստան",
        "name:ia": "Armenia",
        "name:id": "Armenia",
        "name:ie": "Armenia",
        "name:ilo": "Armenia",
        "name:io": "Armenia",
        "name:is": "Armenía",
        "name:it": "Armenia",
        "name:ja": "アルメニア",
        "name:jbo": "xaiastan",
        "name:jv": "Arménia",
        "name:ka": "სომხეთი",
        "name:kaa": "Armeniya",
        "name:kab": "Arminya",
        "name:kg": "Armenia",
        "name:ki": "Armenia",
        "name:kk": "Армения",
        "name:kl": "Armenia",
        "name:km": "អារមេនី",
        "name:kn": "ಅರ್ಮೇನಿಯಾ",
        "name:ko": "아르메니아",
        "name:krc": "Эрмения",
        "name:ks": "اَرمانِیا",
        "name:ksh": "Arrmeenije",
        "name:ku": "Ermenistan",
        "name:kv": "Армения",
        "name:kw": "Armeni",
        "name:ky": "Армения",
        "name:la": "Armenia",
        "name:lad": "Armenia",
        "name:lb": "Armenien",
        "name:lez": "Эрменистан",
        "name:lfn": "Haiastan",
        "name:lg": "Arameniya",
        "name:li": "Armenië",
        "name:lij": "Armenia",
        "name:lmo": "Armenia",
        "name:ln": "Amɛni",
        "name:lo": "ອາມິເນຍ",
        "name:lt": "Armėnija",
        "name:ltg": "Armeneja",
        "name:lv": "Armēnija",
        "name:mdf": "Армение",
        "name:mg": "Armenia",
        "name:mhr": "Армений",
        "name:mi": "Āmenia",
        "name:min": "Armenia",
        "name:mk": "Ерменија",
        "name:ml": "അർമേനിയ",
        "name:mn": "Армен",
        "name:mr": "आर्मेनिया",
        "name:ms": "Armenia",
        "name:mt": "Armenja",
        "name:mwl": "Arménia",
        "name:my": "အာမေနီးယား",
        "name:mzn": "ارمنستون",
        "name:na": "Arminiya",
        "name:nah": "Armenia",
        "name:nan": "Hayastan",
        "name:nds": "Armenien",
        "name:ne": "आर्मेनिया",
        "name:new": "आर्मेनिया",
        "name:nl": "Armenië",
        "name:nn": "Armenia",
        "name:no": "Armenia",
        "name:nov": "Armenia",
        "name:nv": "Aooméénii Bikéyah",
        "name:oc": "Armenia",
        "name:or": "ଆର୍ମେନିଆ",
        "name:os": "Сомихыстон",
        "name:pa": "ਅਰਮੀਨੀਆ",
        "name:pag": "Hayastan",
        "name:pam": "Armenia",
        "name:pcd": "Arménie",
        "name:pdc": "Armeni",
        "name:pih": "Aarmanya",
        "name:pl": "Armenia",
        "name:pms": "Armenia",
        "name:pnb": "آرمینیا",
        "name:pnt": "Αρμενία",
        "name:ps": "ارمنستان",
        "name:pt": "Armênia",
        "name:qu": "Arminya",
        "name:rm": "Armenia",
        "name:rn": "Arumeniya",
        "name:ro": "Armenia",
        "name:roa-rup": "Ermenia",
        "name:ru": "Армения",
        "name:rue": "Арменія",
        "name:rw": "Arumeniya",
        "name:sa": "आर्मीनिया",
        "name:sah": "Эрмээн Сирэ",
        "name:sc": "Armènia",
        "name:scn": "Armenia",
        "name:sco": "Armenie",
        "name:se": "Armenia",
        "name:sg": "Armenïi",
        "name:sh": "Jermenija",
        "name:si": "ආර්මේනියාව",
        "name:sk": "Arménsko",
        "name:sl": "Armenija",
        "name:sm": "Amenia",
        "name:sn": "Armenia",
        "name:so": "Armeeniya",
        "name:sq": "Armeni",
        "name:sr": "Јерменија",
        "name:ss": "I-Arimeniya",
        "name:stq": "Armenien",
        "name:su": "Arménia",
        "name:sv": "Armenien",
        "name:sw": "Armenia",
        "name:szl": "Armyńijo",
        "name:ta": "ஆர்மேனியா",
        "name:te": "ఆర్మేనియా",
        "name:tg": "Арманистон",
        "name:th": "ประเทศอาร์เมเนีย",
        "name:ti": "አርሜኒያ",
        "name:tk": "Ermenistan",
        "name:tl": "Armenya",
        "name:to": "ʻĀminia",
        "name:tok": "ma Aja",
        "name:tpi": "Armenia",
        "name:tr": "Ermenistan",
        "name:tt": "Әрмәнстан",
        "name:tzl": "Haiastan",
        "name:udm": "Армения",
        "name:ug": "ئەرمېنىيە",
        "name:uk": "Вірменія",
        "name:ur": "آرمینیا",
        "name:uz": "Armaniston",
        "name:vec": "Armenia",
        "name:vep": "Armenii",
        "name:vi": "Armenia",
        "name:vls": "Armenië",
        "name:vo": "Larmeniyän",
        "name:war": "Armenya",
        "name:wo": "Armeeni",
        "name:wuu": "亚美尼亚",
        "name:xal": "Хемшудин Орн",
        "name:xmf": "სომხეთი",
        "name:yi": "ארמעניע",
        "name:yo": "Orílẹ́ède Améníà",
        "name:yue": "亞美尼亞",
        "name:zea": "Armenië",
        "name:zh": "亚美尼亚",
        "name:zh_pinyin": "Yàměiníyà",
        "name:zu": "i-Armenia",
        "official_name": "Հայաստանի Հանրապետություն",
        "official_name:be": "Рэспубліка Арменія",
        "official_name:el": "Δημοκρατία της Αρμενίας",
        "official_name:eo": "Armena Respubliko",
        "official_name:fi": "Armenian tasavalta",
        "official_name:fr": "République d'Arménie",
        "official_name:id": "Republik Armenia",
        "official_name:it": "Repubblica di Armenia",
        "official_name:ku": "Komara Ermenistan",
        "official_name:lt": "Armėnijos Respublika",
        "official_name:lv": "Armēnijas Republika",
        "official_name:pl": "Republika Armenii",
        "official_name:ro": "Republica Armenia",
        "official_name:ru": "Республика Армения",
        "official_name:sv": "Republiken Armenien",
        "official_name:tl": "Republika ng Armenya",
        "official_name:vi": "Cộng hoà Armenia",
        "place": "country",
        "population": "2968586",
        "source": "CIA World Factbook (2009-07)",
        "source:sqkm": "CIA World Factbook",
        "sqkm": "29743",
        "wikidata": "Q399",
        "wikipedia": "en:Armenia"
      }
    },
    {
      "type": "node",
      "id": 1883945002,
      "lat": 41.0072710,
      "lon": 44.4900113,
      "tags": {
        "name": "Լոռի",
        "name:de": "Lori",
        "name:el": "Λόρι",
        "name:en": "Lori",
        "name:es": "Lorri",
        "name:fr": "Lorri",
        "name:hu": "Lorj",
        "name:hy": "Լոռի",
        "name:lt": "Lorio sritis",
        "name:pl": "Prowincja Lori",
        "name:ru": "Лори",
        "name:uk": "Лорі",
        "place": "state",
        "wikidata": "Q200350",
        "wikipedia": "fr:Lorri"
      }
    },
    {
      "type": "node",
      "id": 1884053539,
      "lat": 40.3827655,
      "lon": 44.1147270,
      "tags": {
        "is_in:country": "Armenia",
        "name": "Արագածոտն",
        "name:de": "Aragazotn",
        "name:el": "Αραγκατσότν",
        "name:en": "Aragatsotn",
        "name:es": "Aragatsotn",
        "name:fr": "Aragatsotn",
        "name:hu": "Aragacotn",
        "name:ja": "アラガツォトゥン",
        "name:lt": "Aragacotno sritis",
        "name:pl": "Prowincja Aragacotn",
        "name:ru": "Арагацотн",
        "name:uk": "Араґацотн",
        "place": "state",
        "wikidata": "Q17915",
        "wikipedia": "fr:Aragatsotn"
      }
    },
    {
      "type": "node",
      "id": 1884053540,
      "lat": 40.0053589,
      "lon": 44.7315157,
      "tags": {
        "name": "Արարատ",
        "name:de": "Ararat",
        "name:el": "Αραράτ",
        "name:en": "Ararat",
        "name:es": "Ararat",
        "name:fr": "Ararat",
        "name:hu": "Ararat",
        "name:lt": "Araratas",
        "name:pl": "Prowincja Ararat",
        "name:ru": "Арарат",
        "name:uk": "Арарат",
        "place": "state",
        "wikidata": "Q199880",
        "wikipedia": "fr:Ararat (marz)"
      }
    },
    {
      "type": "node",
      "id": 1884053541,
      "lat": 40.1158531,
      "lon": 43.9365414,
      "tags": {
        "name": "Արմավիր",
        "name:de": "Armawir",
        "name:el": "Αρμαβίρ",
        "name:en": "Armavir",
        "name:es": "Armavir",
        "name:fr": "Armavir",
        "name:hu": "Armavir",
        "name:hy": "Արմավիր",
        "name:ja": "アルマヴィル",
        "name:lt": "Armaviro sritis",
        "name:pl": "Prowincja Armawir",
        "name:ru": "Армавир",
        "name:uk": "Армавір",
        "place": "state",
        "wikidata": "Q201147",
        "wikipedia": "fr:Armavir (marz)"
      }
    },
    {
      "type": "node",
      "id": 1884053542,
      "lat": 40.3030726,
      "lon": 45.3757390,
      "tags": {
        "name": "Գեղարքունիք",
        "name:de": "Gegharkunik",
        "name:el": "Γκεγκαρκούνικ",
        "name:en": "Gegharkunik",
        "name:es": "Geghark'unik'",
        "name:fr": "Gégharkounik",
        "name:hu": "Gegarkounik",
        "name:lt": "Gegarkuniko sritis",
        "name:pl": "Prowincja Gegharkunik",
        "name:ru": "Гехаркуник",
        "name:uk": "Ґегаркунік",
        "place": "state",
        "wikidata": "Q199905",
        "wikipedia": "fr:Gegharkunik"
      }
    },
    {
      "type": "node",
      "id": 1884053544,
      "lat": 40.9185940,
      "lon": 43.8403536,
      "tags": {
        "name": "Շիրակ",
        "name:de": "Schirak",
        "name:el": "Σιράκ",
        "name:en": "Shirak",
        "name:es": "Shirak",
        "name:fr": "Chirak",
        "name:hu": "Sirak",
        "name:hy": "Շիրակ",
        "name:lt": "Širako sritis",
        "name:pl": "Prowincja Szirak",
        "name:ru": "Ширак",
        "name:uk": "Ширак",
        "place": "state",
        "wikidata": "Q201063",
        "wikipedia": "fr:Shirak"
      }
    },
    {
      "type": "node",
      "id": 1884053545,
      "lat": 39.3281408,
      "lon": 46.1530296,
      "tags": {
        "name": "Սյունիք",
        "name:de": "Sjunik",
        "name:en": "Syunik",
        "name:es": "Syunik'",
        "name:fr": "Siounie",
        "name:hu": "Szjounik",
        "name:hy": "Սյունիք",
        "name:lt": "Siuniko sritis",
        "name:pl": "Prowincja Sjunik",
        "name:ru": "Сюник",
        "name:uk": "Сюнік",
        "place": "state",
        "wikidata": "Q2523428",
        "wikipedia": "fr:Syunik"
      }
    },
    {
      "type": "node",
      "id": 1884053546,
      "lat": 40.8275136,
      "lon": 45.1847828,
      "tags": {
        "name": "Տավուշ",
        "name:de": "Tawusch",
        "name:el": "Ταβούς",
        "name:en": "Tavush",
        "name:es": "Tavush",
        "name:fr": "Tavouch",
        "name:hu": "Tavous",
        "name:hy": "Տավուշ",
        "name:lt": "Tavušo sritis",
        "name:pl": "Prowincja Tawusz",
        "name:ru": "Тавуш",
        "name:uk": "Тавуш",
        "place": "state",
        "wikidata": "Q201140",
        "wikipedia": "fr:Tavush"
      }
    },
    {
      "type": "node",
      "id": 1884053547,
      "lat": 39.8019849,
      "lon": 45.4557591,
      "tags": {
        "name": "Վայոց Ձոր",
        "name:de": "Wajoz Dsor",
        "name:en": "Vayots Dzor",
        "name:es": "Vayots' Dzor",
        "name:fr": "Vayots Dzor",
        "name:hu": "Vajoc Dzor",
        "name:hy": "Վայոց Ձոր",
        "name:ja": "ヴァヨツ・ゾル",
        "name:lt": "Vajocdzoro sritis",
        "name:pl": "Prowincja Wajoc Dzor",
        "name:ru": "Вайотс Дзор",
        "name:uk": "Вайоц-Дзор",
        "place": "state",
        "wikidata": "Q200124",
        "wikipedia": "fr:Vayots Dzor"
      }
    },
    {
      "type": "node",
      "id": 2291231926,
      "lat": 40.2803175,
      "lon": 44.6545793,
      "tags": {
        "admin_level": "4",
        "is_in:country": "Armenia",
        "name": "Կոտայք",
        "name:el": "Κοτάικ",
        "name:en": "Kotayk",
        "name:hu": "Kotajk",
        "name:ja": "コタイク",
        "name:ru": "Котайк",
        "place": "state"
      }
    }
  ]
}
